[{"OBJECT_NAME":"OBJECT C","OBJECT_ID":"2023-104C","EPOCH":"2026-03-09T22:39:44.230752","MEAN_MOTION":15.26846312,"ECCENTRICITY":0.00113074,"INCLINATION":97.273,"RA_OF_ASC_NODE":135.3333,"ARG_OF_PERICENTER":3.876,"MEAN_ANOMALY":356.2565,"EPHEMERIS_TYPE":0,"CLASSIFICATION_TYPE":"U","NORAD_CAT_ID":57426,"ELEMENT_SET_NO":999,"REV_AT_EPOCH":14663,"BSTAR":0.00062618506,"MEAN_MOTION_DOT":0.00016495,"MEAN_MOTION_DDOT":0},{"OBJECT_NAME":"STARLINK-34083","OBJECT_ID":"2025-095U","EPOCH":"2026-03-09T14:54:17.290944","MEAN_MOTION":15.27606861,"ECCENTRICITY":0.0003141,"INCLINATION":43.0061,"RA_OF_ASC_NODE":176.9324,"ARG_OF_PERICENTER":299.8371,"MEAN_ANOMALY":60.2168,"EPHEMERIS_TYPE":0,"CLASSIFICATION_TYPE":"U","NORAD_CAT_ID":63908,"ELEMENT_SET_NO":999,"REV_AT_EPOCH":4776,"BSTAR":0.0010661,"MEAN_MOTION_DOT":0.00029217,"MEAN_MOTION_DDOT":0}]
